OBJECT_NAME,OBJECT_ID,EPOCH,MEAN_MOTION,ECCENTRICITY,INCLINATION,RA_OF_ASC_NODE,ARG_OF_PERICENTER,MEAN_ANOMALY,EPHEMERIS_TYPE,CLASSIFICATION_TYPE,NORAD_CAT_ID,ELEMENT_SET_NO,REV_AT_EPOCH,BSTAR,MEAN_MOTION_DOT,MEAN_MOTION_DDOT,SEMIMAJOR_AXIS,SATELLITE_TYPE
GLOBALSTAR M001,1998-008A,2025-01-01T00:59:03.842016,12.38204685,0.0001112,52.0033,99.7141,223.1571,308.4214,0,U,25162,999,22311,5.0148e-05,-9e-07,0.0,7892.359864624784,Globalstar
GLOBALSTAR M004,1998-008B,2024-12-31T20:11:19.539168,12.63383759,0.0001935,51.9972,204.6808,287.9344,192.4609,0,U,25163,999,24053,0.00028165,-5.3e-07,0.0,7787.145956678791,Globalstar
GLOBALSTAR M002,1998-008C,2024-12-31T20:52:09.990912,11.615065,7.74e-05,52.0031,299.7258,182.6116,177.47,0,U,25164,999,16462,-0.00085742,-1.2e-06,0.0,8236.083575577453,Globalstar
GLOBALSTAR M003,1998-008D,2025-01-01T03:33:07.015104,12.12063267,0.0007873,51.9985,271.1428,321.47,189.8504,0,U,25165,999,21305,0.0012976,3.2e-07,0.0,8005.435846931753,Globalstar
GLOBALSTAR M014,1998-023A,2024-12-31T20:56:27.031776,11.65477522,0.0002103,51.9812,226.4617,63.5182,310.5015,0,U,25306,999,17166,0.00078653,-3.6e-07,0.0,8217.364913554202,Globalstar
GLOBALSTAR M006,1998-023B,2024-12-31T20:42:32.800896,11.58170956,0.0003379,51.9941,272.7057,148.848,246.0538,0,U,25307,999,19744,0.0008618,-3.4e-07,0.0,8251.88933052985,Globalstar
GLOBALSTAR M015,1998-023C,2024-12-31T18:20:56.980032,11.48855432,0.0012747,51.9847,3.7466,138.1654,32.772,0,U,25308,999,17483,0.00013379,-6.8e-07,0.0,8296.436369227298,Globalstar
GLOBALSTAR M008,1998-023D,2024-12-31T22:06:15.414336,12.3605958,0.0002276,51.999,322.9999,176.0301,218.2402,0,U,25309,999,21716,0.00057519,-2.3e-07,0.0,7901.488360717512,Globalstar
GLOBALSTAR M023,1999-004A,2024-12-31T20:20:32.013600,12.62492841,0.0010963,52.0079,202.9932,114.9806,7.9227,0,U,25621,999,19459,0.00035573,-4e-07,0.0,7790.809023147006,Globalstar
GLOBALSTAR M040,1999-004B,2024-12-31T19:30:10.884672,12.61996232,0.000177,51.9891,207.0041,61.2033,312.797,0,U,25622,999,19412,0.00040091,-3.2e-07,0.0,7792.852733514526,Globalstar
GLOBALSTAR M036,1999-004C,2024-12-31T22:17:31.655040,11.86586195,0.0011171,51.9993,321.1757,91.4048,26.463,0,U,25623,999,15912,0.0012977,6e-08,0.0,8119.618923975617,Globalstar
GLOBALSTAR M038,1999-004D,2024-12-31T21:10:13.750176,12.32517421,0.0003035,51.9942,193.3885,74.8694,15.6715,0,U,25624,999,18174,0.00034709,-5.3e-07,0.0,7916.619959769967,Globalstar
GLOBALSTAR M022,1999-012A,2024-12-31T18:34:58.902240,12.02494107,0.000242,52.0062,26.0049,193.1664,338.2708,0,U,25649,999,15623,-1.1383e-05,-8.8e-07,0.0,8047.849944223984,Globalstar
GLOBALSTAR M041,1999-012B,2025-01-01T01:55:30.116352,11.96667643,0.0002621,52.0016,261.5333,11.1373,348.9521,0,U,25650,999,15852,0.0013406,1.9e-07,0.0,8073.951616054139,Globalstar
GLOBALSTAR M046,1999-012C,2024-12-31T21:29:06.597600,12.09402834,0.0002061,52.0075,341.917,285.2811,109.8499,0,U,25651,999,16342,0.00038009,-5.4e-07,0.0,8017.171735221041,Globalstar
GLOBALSTAR M037,1999-012D,2024-12-31T21:04:29.134272,12.62430567,0.0001738,52.0024,333.579,166.8203,227.4904,0,U,25652,999,19014,0.00038,-3.6e-07,0.0,7791.065227786491,Globalstar
GLOBALSTAR M019,1999-019B,2024-12-31T21:11:01.740192,12.13871925,0.000135,51.9851,180.7129,48.4941,99.2854,0,U,25677,999,16482,-0.00026389,-1.15e-06,0.0,7997.481853712321,Globalstar
GLOBALSTAR M044,1999-019C,2024-12-31T19:58:20.046144,11.90246964,0.0007303,51.9963,111.2768,84.7477,62.6789,0,U,25678,999,15139,0.00099086,-1.3e-07,0.0,8102.961704787631,Globalstar
GLOBALSTAR M042,1999-019D,2024-12-31T19:44:39.095808,12.2207616,0.0001954,51.9989,163.4253,330.9859,174.7983,0,U,25679,999,16479,2.5628e-05,-8.9e-07,0.0,7961.648377987433,Globalstar
GLOBALSTAR M025,1999-031A,2024-12-31T22:08:30.156864,11.2255854,0.0001127,51.9774,186.7518,163.959,345.9149,0,U,25770,999,46292,6.5563e-05,-6.5e-07,0.0,8425.503096515264,Globalstar
GLOBALSTAR M049,1999-031B,2024-12-31T19:25:09.417792,11.12112042,0.0004676,51.9837,213.3673,89.7207,270.4125,0,U,25771,999,9880,-0.00034234,-7.5e-07,0.0,8478.183506276417,Globalstar
GLOBALSTAR M047,1999-031C,2024-12-31T19:20:56.202720,11.31925861,0.0016181,51.9805,226.336,340.0231,19.994,0,U,25772,999,45215,-6.5137e-05,-7.2e-07,0.0,8378.954905564862,Globalstar
GLOBALSTAR M052,1999-031D,2024-12-31T14:52:56.329824,11.15056546,0.000219,51.9896,324.8281,262.143,268.6764,0,U,25773,999,45981,0.00055069,-4.9e-07,0.0,8463.251501110579,Globalstar
