GLOBALSTAR M001         
1 25162U 98008A   25001.04101669 -.00000090  00000+0  50148-4 0  9997
2 25162  52.0033  99.7141 0001112 223.1571 308.4214 12.38204685223118
GLOBALSTAR M004         
1 25163U 98008B   24366.84119837 -.00000053  00000+0  28165-3 0  9997
2 25163  51.9972 204.6808 0001935 287.9344 192.4609 12.63383759240537
GLOBALSTAR M002         
1 25164U 98008C   24366.86956008 -.00000120  00000+0 -85742-3 0  9999
2 25164  52.0031 299.7258 0000774 182.6116 177.4700 11.61506500164626
GLOBALSTAR M003         
1 25165U 98008D   25001.14799786  .00000032  00000+0  12976-2 0  9994
2 25165  51.9985 271.1428 0007873 321.4700 189.8504 12.12063267213051
GLOBALSTAR M014         
1 25306U 98023A   24366.87253509 -.00000036  00000+0  78653-3 0  9999
2 25306  51.9812 226.4617 0002103  63.5182 310.5015 11.65477522171669
GLOBALSTAR M006         
1 25307U 98023B   24366.86287964 -.00000034  00000+0  86180-3 0  9993
2 25307  51.9941 272.7057 0003379 148.8480 246.0538 11.58170956197449
GLOBALSTAR M015         
1 25308U 98023C   24366.76454838 -.00000068  00000+0  13379-3 0  9996
2 25308  51.9847   3.7466 0012747 138.1654  32.7720 11.48855432174834
GLOBALSTAR M008         
1 25309U 98023D   24366.92101174 -.00000023  00000+0  57519-3 0  9992
2 25309  51.9990 322.9999 0002276 176.0301 218.2402 12.36059580217167
GLOBALSTAR M023         
1 25621U 99004A   24366.84759275 -.00000040  00000+0  35573-3 0  9996
2 25621  52.0079 202.9932 0010963 114.9806   7.9227 12.62492841194590
GLOBALSTAR M040         
1 25622U 99004B   24366.81262598 -.00000032  00000+0  40091-3 0  9993
2 25622  51.9891 207.0041 0001770  61.2033 312.7970 12.61996232194123
GLOBALSTAR M036         
1 25623U 99004C   24366.92883860  .00000006  00000+0  12977-2 0  9998
2 25623  51.9993 321.1757 0011171  91.4048  26.4630 11.86586195159128
GLOBALSTAR M038         
1 25624U 99004D   24366.88210359 -.00000053  00000+0  34709-3 0  9992
2 25624  51.9942 193.3885 0003035  74.8694  15.6715 12.32517421181741
GLOBALSTAR M022         
1 25649U 99012A   24366.77429285 -.00000088  00000+0 -11383-4 0  9999
2 25649  52.0062  26.0049 0002420 193.1664 338.2708 12.02494107156230
GLOBALSTAR M041         
1 25650U 99012B   25001.08020968  .00000019  00000+0  13406-2 0  9995
2 25650  52.0016 261.5333 0002621  11.1373 348.9521 11.96667643158526
GLOBALSTAR M046         
1 25651U 99012C   24366.89521525 -.00000054  00000+0  38009-3 0  9990
2 25651  52.0075 341.9170 0002061 285.2811 109.8499 12.09402834163420
GLOBALSTAR M037         
1 25652U 99012D   24366.87811498 -.00000036  00000+0  38000-3 0  9991
2 25652  52.0024 333.5790 0001738 166.8203 227.4904 12.62430567190149
GLOBALSTAR M019         
1 25677U 99019B   24366.88265903 -.00000115  00000+0 -26389-3 0  9996
2 25677  51.9851 180.7129 0001350  48.4941  99.2854 12.13871925164822
GLOBALSTAR M044         
1 25678U 99019C   24366.83217646 -.00000013  00000+0  99086-3 0  9993
2 25678  51.9963 111.2768 0007303  84.7477  62.6789 11.90246964151398
GLOBALSTAR M042         
1 25679U 99019D   24366.82267472 -.00000089  00000+0  25628-4 0  9990
2 25679  51.9989 163.4253 0001954 330.9859 174.7983 12.22076160164795
GLOBALSTAR M025         
1 25770U 99031A   24366.92257126 -.00000065  00000+0  65563-4 0  9998
2 25770  51.9774 186.7518 0001127 163.9590 345.9149 11.22558540462927
GLOBALSTAR M049         
1 25771U 99031B   24366.80913678 -.00000075  00000+0 -34234-3 0  9999
2 25771  51.9837 213.3673 0004676  89.7207 270.4125 11.12112042 98809
GLOBALSTAR M047         
1 25772U 99031C   24366.80620605 -.00000072  00000+0 -65137-4 0  9999
2 25772  51.9805 226.3360 0016181 340.0231  19.9940 11.31925861452151
GLOBALSTAR M052         
1 25773U 99031D   24366.62009641 -.00000049  00000+0  55069-3 0  9996
2 25773  51.9896 324.8281 0002190 262.1430 268.6764 11.15056546459812
